[{"OBJECT_NAME":"OBJECT J","OBJECT_ID":"2024-092J","EPOCH":"2026-03-09T22:08:58.299072","MEAN_MOTION":14.31802287,"ECCENTRICITY":0.00130036,"INCLINATION":98.6556,"RA_OF_ASC_NODE":188.1438,"ARG_OF_PERICENTER":138.752,"MEAN_ANOMALY":221.4648,"EPHEMERIS_TYPE":0,"CLASSIFICATION_TYPE":"U","NORAD_CAT_ID":59781,"ELEMENT_SET_NO":999,"REV_AT_EPOCH":9469,"BSTAR":0.00013473254,"MEAN_MOTION_DOT":3.16e-6,"MEAN_MOTION_DDOT":0},{"OBJECT_NAME":"FENGYUN 1C DEB","OBJECT_ID":"1999-025BUC","EPOCH":"2026-03-08T04:50:59.508960","MEAN_MOTION":14.37733988,"ECCENTRICITY":0.00385599,"INCLINATION":98.7378,"RA_OF_ASC_NODE":161.5853,"ARG_OF_PERICENTER":92.2182,"MEAN_ANOMALY":268.342,"EPHEMERIS_TYPE":0,"CLASSIFICATION_TYPE":"U","NORAD_CAT_ID":31440,"ELEMENT_SET_NO":999,"REV_AT_EPOCH":97553,"BSTAR":0.0023055037,"MEAN_MOTION_DOT":6.957e-5,"MEAN_MOTION_DDOT":0}]
